ORBCOMM FM20            
1 25416U 98046D   24300.48598773  .00003105  00000+0  11045-2 0  9996
2 25416  44.9930 207.2157 0000645 357.9638   2.1206 14.36108623370655
ORBCOMM FM16            
1 25417U 98046E   24300.52187546  .00004110  00000+0  14087-2 0  9990
2 25417  44.9927 201.3654 0003068 201.0734 158.9987 14.37413981370616
ORBCOMM FM15            
1 25418U 98046F   24300.86092791  .00004481  00000+0  15413-2 0  9990
2 25418  44.9959 204.2463 0002715 207.1709 152.8997 14.37096082370836
ORBCOMM FM14            
1 25419U 98046G   24300.86083180  .00004644  00000+0  15873-2 0  9994
2 25419  44.9948 203.0749 0001552 190.3120 169.7697 14.37356220370845
ORBCOMM FM13            
1 25420U 98046H   24300.86286689  .00004316  00000+0  15066-2 0  9995
2 25420  44.9962 209.0073 0003662 185.1085 174.9725 14.36416083370804
ORBCOMM FM21            
1 25475U 98053A   24300.47973954  .00003407  00000+0  12041-2 0  9998
2 25475  45.0080 295.4428 0001371 286.6525  73.4172 14.36233973363638
ORBCOMM FM22            
1 25476U 98053B   24300.38579942  .00003963  00000+0  13728-2 0  9998
2 25476  45.0071 292.3778 0000398 148.5195 211.5677 14.36954900363624
ORBCOMM FM23            
1 25477U 98053C   24300.43255861  .00003541  00000+0  12481-2 0  9993
2 25477  45.0078 298.0285 0000478 262.3280  97.7513 14.36300118363772
